{"object":{"shortname":"90377 Sedna","fullname":"90377 Sedna (2003 VB12)","pha":false,"kind":"an","orbit_id":"51","spkid":"20090377","neo":false,"des":"90377","prefix":null,"orbit_class":{"code":"TNO","name":"TransNeptunian Object"}},"signature":{"source":"NASA/JPL Small-Body Database (SBDB) API","version":"1.3"},"orbit":{"not_valid_after":null,"not_valid_before":null,"equinox":"J2000","orbit_id":"51","data_arc":"12939","t_jup":"10.221","model_pars":[],"pe_used":"DE441","n_obs_used":671,"last_obs":"2026-02-27","sb_used":"SB441-N16","epoch":"2461200.5","soln_date":"2026-06-06 14:12:24","source":"JPL","n_del_obs_used":null,"n_dop_obs_used":null,"cov_epoch":"2458411.5","rms":".38596","two_body":null,"producer":"Otto Matic","moid":"75.2131","moid_jup":"71.0876","condition_code":"1","first_obs":"1990-09-25","comment":null,"elements":[{"units":null,"title":"eccentricity","name":"e","value":".8598824585187618","sigma":"3.7251E-5","label":"e"},{"sigma":".1459","label":"a","units":"au","title":"semi-major axis","name":"a","value":"543.7195289104732"},{"label":"q","sigma":".0011033","value":"76.18464364627253","title":"perihelion distance","name":"q","units":"au"},{"sigma":"3.3169E-6","label":"i","units":"deg","value":"11.92527582847476","title":"inclination; angle with respect to x-y ecliptic plane","name":"i"},{"units":"deg","name":"om","title":"longitude of the ascending node","value":"144.5061662673739","sigma":".00026058","label":"node"},{"units":"deg","title":"argument of perihelion","name":"w","value":"311.0987725939751","sigma":".0019143","label":"peri"},{"sigma":".0005731","label":"M","units":"deg","name":"ma","title":"mean anomaly","value":"358.5956944005428"},{"title":"time of perihelion passage","name":"tp","value":"2479264.750687138669","units":"TDB","label":"tp","sigma":".71422"},{"sigma":"1864.","label":"period","units":"d","name":"per","title":"sidereal orbital period","value":"4630851.183590915"},{"units":"deg/d","name":"n","title":"mean motion","value":"7.773948799642578E-5","sigma":"3.1292E-8","label":"n"},{"units":"au","value":"1011.254414174674","title":"aphelion distance","name":"ad","sigma":".27137","label":"Q"}]}}
